OBJECT_NAME,OBJECT_ID,EPOCH,MEAN_MOTION,ECCENTRICITY,INCLINATION,RA_OF_ASC_NODE,ARG_OF_PERICENTER,MEAN_ANOMALY,EPHEMERIS_TYPE,CLASSIFICATION_TYPE,NORAD_CAT_ID,ELEMENT_SET_NO,REV_AT_EPOCH,BSTAR,MEAN_MOTION_DOT,MEAN_MOTION_DDOT
ANGOSAT 2,2022-131A,2026-07-13T15:17:07.029888,1.00271033,.0000169,0.0181,115.7661,147.0294,280.9877,0,U,54033,999,1374,0,.131E-5,0
EUTELSAT HOTBIRD 13F,2022-134A,2026-07-13T03:15:40.656672,1.00272365,.00018215,0.0558,285.3238,69.6444,357.9840,0,U,54048,999,1363,0,.85E-6,0
LDPE-2,2022-144A,2026-07-13T11:25:38.676576,1.00543175,.00023774,5.6742,63.4303,110.6544,156.4424,0,U,54219,999,1210,0,.3E-6,0
EUTELSAT HOTBIRD 13G,2022-146A,2026-07-13T13:31:15.516192,1.00271425,.00021325,0.0141,238.8292,306.3453,322.0971,0,U,54225,999,773,0,0,0
ZHONGXING-19,2022-148A,2026-07-13T14:32:38.851872,1.00270531,.00029404,0.0144,344.1043,155.3273,173.3911,0,U,54230,999,1364,0,-.86E-6,0
GALAXY 31 (G-31),2022-153A,2026-07-13T14:36:03.466944,1.00270713,.00009442,0.0171,66.0837,53.9617,269.4339,0,U,54243,999,739,0,.9E-7,0
GALAXY 32 (G-32),2022-153B,2026-07-13T12:13:38.932032,1.00269974,.00014004,0.0121,29.6563,18.1075,336.0269,0,U,54244,999,1340,0,-.178E-5,0
EUTELSAT 10B,2022-157A,2026-07-13T08:22:41.421792,1.00267609,.00016082,0.0609,95.3158,17.0416,314.5294,0,U,54259,999,1328,0,.64E-6,0
GALAXY 35 (G-35),2022-170A,2026-07-13T13:01:03.410976,1.00268649,.00019026,0.0255,65.2301,51.8228,276.5266,0,U,54741,999,1315,0,0,0
GALAXY 36 (G-36),2022-170B,2026-07-13T14:45:10.093824,1.00270311,.00023527,0.0040,258.9339,201.0850,323.7604,0,U,54742,999,1303,0,-.189E-5,0
METEOSAT-12 (MTG-I1),2022-170C,2026-07-13T08:19:49.197216,1.00267253,.00037618,0.7231,19.3869,82.4326,314.0654,0,U,54743,999,1324,0,-.12E-6,0
SHIJIAN-23 (SJ-23),2023-002A,2026-07-13T18:34:53.605056,1.00077393,.0003432,3.7833,77.9768,270.3095,352.1879,0,U,55131,999,1277,0,-.357E-5,0
APSTAR-6E,2023-005A,2026-07-13T15:48:43.007040,1.00265066,.000186,0.0663,239.1348,339.1862,84.4066,0,U,55239,999,1895,0,-.323E-5,0
USA 342,2023-008A,2026-07-09T06:55:38.597952,1.00269378,.0000262,0.0052,352.2306,7.3445,55.4773,0,U,55263,999,1273,0,0,0
LDPE-3A,2023-008B,2026-07-13T14:08:58.563744,0.99150595,.00015042,2.4143,81.3372,79.4228,127.2161,0,U,55264,999,1207,0,-.302E-5,0
ELEKTRO-L 4,2023-016A,2026-07-12T17:34:18.340608,1.00272446,.00012616,0.1095,127.7772,49.1881,183.0251,0,U,55506,999,1259,0,-.58E-6,0
AMAZONAS NEXUS,2023-017A,2026-07-13T13:10:25.013568,1.00269010,.00043579,0.0354,42.5949,42.8529,342.5754,0,U,55508,999,730,0,-.286E-5,0
ZHONGXING-26,2023-023A,2026-07-12T12:23:44.685888,1.00290824,.00031696,0.0650,71.3409,16.2999,153.8117,0,U,55686,999,1248,0,-.352E-5,0
LUCH-5X (OLYMP-K 2),2023-031A,2026-07-13T17:10:49.441728,1.00271441,.0000896,0.0297,94.8289,172.1151,344.3269,0,U,55841,999,1220,0,.29E-6,0
GAOFEN-13 02,2023-036A,2026-07-13T14:04:23.335680,1.00274554,.00037082,1.0268,4.3643,336.0273,310.3810,0,U,55912,999,1235,0,-.223E-5,0
SES-18,2023-038A,2026-07-13T14:41:02.988960,1.00271552,.00008387,0.0570,259.1151,311.3017,198.2411,0,U,55970,999,1236,0,-.105E-5,0
SES-19,2023-038B,2026-07-12T23:08:12.649920,1.00273078,.00015959,0.0165,326.4823,156.8223,19.7105,0,U,55971,999,1235,0,.86E-6,0
INTELSAT 40E (IS-40E),2023-052A,2026-07-13T14:44:32.654112,1.00269375,.00022652,0.0244,67.2239,79.6063,274.8087,0,U,56174,999,1208,0,0,0
VIASAT-3 F1,2023-060A,2026-07-12T14:47:59.500896,1.00270234,.00010194,0.0161,22.0903,87.2892,314.1503,0,U,56370,999,1168,0,0,0
ARCTURUS,2023-060B,2026-07-13T14:36:58.834656,1.00595356,.00008918,2.8403,79.6133,132.0608,36.2272,0,U,56371,999,1172,0,-.334E-5,0
GS-1,2023-060C,2026-07-13T13:53:19.212576,1.00267194,.00034173,2.7913,79.5205,281.1680,228.4231,0,U,56372,999,780,0,-.229E-5,0
BEIDOU-3 G4,2023-066A,2026-07-13T14:56:38.733792,1.00272958,.00048765,0.4618,338.4175,187.8791,129.4172,0,U,56564,999,1165,0,-.284E-5,0
ARABSAT-7B (BADR-8),2023-075A,2026-07-13T01:36:42.399360,1.00271123,.0003307,0.0751,31.4954,358.8618,310.7639,0,U,56757,999,1137,0,.143E-5,0
NVS-01 (IRNSS-1J),2023-076A,2026-07-13T13:49:39.227808,1.00265376,.00035567,2.1057,243.1559,7.3092,17.8564,0,U,56759,999,1138,0,-.34E-5,0
NUSANTARA TIGA (SATRIA),2023-086A,2026-07-13T12:36:13.143168,1.00267768,.00021926,0.0347,13.2245,326.8860,286.3349,0,U,57045,999,1002,0,-.239E-5,0
H2SAT (HEINRICH HERTZ),2023-093A,2026-07-13T13:27:53.339328,1.00269831,.00003665,0.0196,98.1747,51.9613,343.9632,0,U,57213,999,1118,0,-.2E-7,0
